STARLINK-32928          
1 63564U 25075S   26039.09292703  .00024303  00000+0  88956-3 0  9995
2 63564  43.0027  77.5478 0001832 275.5874  84.4769 15.27586943 47416
STARLINK-32687          
1 63565U 25075T   26039.11861776  .00024700  00000+0  90355-3 0  9998
2 63565  42.9956  77.7132 0000435 304.6837  55.3974 15.27599436 47412
STARLINK-32950          
1 63566U 25075U   26039.15314833  .00032118  00000+0  11698-2 0  9994
2 63566  43.0137  77.0871 0003919 306.2122  53.8367 15.27624994 47411
STARLINK-32954          
1 63567U 25075V   26039.10061695  .00027511  00000+0  10045-2 0  9991
2 63567  43.0054  77.5793 0001869 265.8957  94.1681 15.27613018 47407
STARLINK-32940          
1 63568U 25075W   26039.17114849  .00041270  00000+0  14991-2 0  9991
2 63568  43.0000  77.2431 0001412 250.1480 109.9219 15.27618426 47418
STARLINK-32959          
1 63569U 25076A   26039.25547285  .00036685  00000+0  13341-2 0  9998
2 63569  42.9992 131.9016 0000616 257.6617 102.4165 15.27628012 47288
STARLINK-32956          
1 63570U 25076B   26039.26304211  .00033645  00000+0  12251-2 0  9993
2 63570  42.9976 131.0914 0001824 276.9127  83.1518 15.27620072 47287
STARLINK-33722          
1 63571U 25076C   26038.29685925  .00031371  00000+0  11442-2 0  9995
2 63571  43.0028 133.2229 0001439 284.5285  75.5407 15.27594944 47171
STARLINK-33739          
1 63572U 25076D   26039.24695961  .00025022  00000+0  91498-3 0  9999
2 63572  42.9952 128.3086 0000879 189.5782 170.5053 15.27605718 47327
STARLINK-33683          
1 63573U 25076E   26039.24567780  .00036304  00000+0  13212-2 0  9999
2 63573  42.9989 128.2986 0002634 301.5944  58.4651 15.27606505 47326
STARLINK-33732          
1 63575U 25076G   26039.29820796  .00027169  00000+0  99218-3 0  9995
2 63575  43.0006 127.8365 0003052 166.4589 193.6345 15.27610992 47332
STARLINK-33800          
1 63576U 25076H   26039.27251104  .00026056  00000+0  95244-3 0  9994
2 63576  42.9948 127.6351 0003017 300.1989  59.8564 15.27598598 47334
STARLINK-33632          
1 63577U 25076J   26039.24310487  .00040013  00000+0  14545-2 0  9995
2 63577  42.9999 128.2784 0001214 245.0849 114.9877 15.27607191 47326
STARLINK-33719          
1 63578U 25076K   26039.28150135  .00034925  00000+0  12707-2 0  9995
2 63578  42.9998 127.7096 0003514 279.6729  80.3725 15.27626149 47334
STARLINK-33755          
1 63579U 25076L   26039.28277807  .00030593  00000+0  11156-2 0  9996
2 63579  43.0007 127.6401 0005538 299.9434  60.0868 15.27599283 47334
STARLINK-33752          
1 63580U 25076M   26039.23025128  .00038273  00000+0  13915-2 0  9998
2 63580  43.0022 128.1860 0002097 295.0481  65.0152 15.27616486 47329
