[{"OBJECT_NAME":"STARLINK-32928","OBJECT_ID":"2025-075S","EPOCH":"2026-02-08T02:13:48.895392","MEAN_MOTION":15.27586943,"ECCENTRICITY":0.00018323,"INCLINATION":43.0027,"RA_OF_ASC_NODE":77.5478,"ARG_OF_PERICENTER":275.5874,"MEAN_ANOMALY":84.4769,"EPHEMERIS_TYPE":0,"CLASSIFICATION_TYPE":"U","NORAD_CAT_ID":63564,"ELEMENT_SET_NO":999,"REV_AT_EPOCH":4741,"BSTAR":0.00088955569,"MEAN_MOTION_DOT":0.00024303,"MEAN_MOTION_DDOT":0},{"OBJECT_NAME":"STARLINK-32687","OBJECT_ID":"2025-075T","EPOCH":"2026-02-08T02:50:48.574464","MEAN_MOTION":15.27599436,"ECCENTRICITY":4.357e-5,"INCLINATION":42.9956,"RA_OF_ASC_NODE":77.7132,"ARG_OF_PERICENTER":304.6837,"MEAN_ANOMALY":55.3974,"EPHEMERIS_TYPE":0,"CLASSIFICATION_TYPE":"U","NORAD_CAT_ID":63565,"ELEMENT_SET_NO":999,"REV_AT_EPOCH":4741,"BSTAR":0.00090354717,"MEAN_MOTION_DOT":0.000247,"MEAN_MOTION_DDOT":0},{"OBJECT_NAME":"STARLINK-32950","OBJECT_ID":"2025-075U","EPOCH":"2026-02-08T03:40:32.015712","MEAN_MOTION":15.27624994,"ECCENTRICITY":0.00039199,"INCLINATION":43.0137,"RA_OF_ASC_NODE":77.0871,"ARG_OF_PERICENTER":306.2122,"MEAN_ANOMALY":53.8367,"EPHEMERIS_TYPE":0,"CLASSIFICATION_TYPE":"U","NORAD_CAT_ID":63566,"ELEMENT_SET_NO":999,"REV_AT_EPOCH":4741,"BSTAR":0.0011698376,"MEAN_MOTION_DOT":0.00032118,"MEAN_MOTION_DDOT":0},{"OBJECT_NAME":"STARLINK-32954","OBJECT_ID":"2025-075V","EPOCH":"2026-02-08T02:24:53.304480","MEAN_MOTION":15.27613018,"ECCENTRICITY":0.00018697,"INCLINATION":43.0054,"RA_OF_ASC_NODE":77.5793,"ARG_OF_PERICENTER":265.8957,"MEAN_ANOMALY":94.1681,"EPHEMERIS_TYPE":0,"CLASSIFICATION_TYPE":"U","NORAD_CAT_ID":63567,"ELEMENT_SET_NO":999,"REV_AT_EPOCH":4740,"BSTAR":0.001004509,"MEAN_MOTION_DOT":0.00027511,"MEAN_MOTION_DDOT":0},{"OBJECT_NAME":"STARLINK-32940","OBJECT_ID":"2025-075W","EPOCH":"2026-02-08T04:06:27.229536","MEAN_MOTION":15.27618426,"ECCENTRICITY":0.00014123,"INCLINATION":43,"RA_OF_ASC_NODE":77.2431,"ARG_OF_PERICENTER":250.148,"MEAN_ANOMALY":109.9219,"EPHEMERIS_TYPE":0,"CLASSIFICATION_TYPE":"U","NORAD_CAT_ID":63568,"ELEMENT_SET_NO":999,"REV_AT_EPOCH":4741,"BSTAR":0.0014991269,"MEAN_MOTION_DOT":0.0004127,"MEAN_MOTION_DDOT":0},{"OBJECT_NAME":"STARLINK-32959","OBJECT_ID":"2025-076A","EPOCH":"2026-02-08T06:07:52.854240","MEAN_MOTION":15.27628012,"ECCENTRICITY":6.162e-5,"INCLINATION":42.9992,"RA_OF_ASC_NODE":131.9016,"ARG_OF_PERICENTER":257.6617,"MEAN_ANOMALY":102.4165,"EPHEMERIS_TYPE":0,"CLASSIFICATION_TYPE":"U","NORAD_CAT_ID":63569,"ELEMENT_SET_NO":999,"REV_AT_EPOCH":4728,"BSTAR":0.0013340624,"MEAN_MOTION_DOT":0.00036685,"MEAN_MOTION_DDOT":0},{"OBJECT_NAME":"STARLINK-32956","OBJECT_ID":"2025-076B","EPOCH":"2026-02-08T06:18:46.838304","MEAN_MOTION":15.27620072,"ECCENTRICITY":0.0001824,"INCLINATION":42.9976,"RA_OF_ASC_NODE":131.0914,"ARG_OF_PERICENTER":276.9127,"MEAN_ANOMALY":83.1518,"EPHEMERIS_TYPE":0,"CLASSIFICATION_TYPE":"U","NORAD_CAT_ID":63570,"ELEMENT_SET_NO":999,"REV_AT_EPOCH":4728,"BSTAR":0.0012250816,"MEAN_MOTION_DOT":0.00033645,"MEAN_MOTION_DDOT":0},{"OBJECT_NAME":"STARLINK-33722","OBJECT_ID":"2025-076C","EPOCH":"2026-02-07T07:07:28.639200","MEAN_MOTION":15.27594944,"ECCENTRICITY":0.0001439,"INCLINATION":43.0028,"RA_OF_ASC_NODE":133.2229,"ARG_OF_PERICENTER":284.5285,"MEAN_ANOMALY":75.5407,"EPHEMERIS_TYPE":0,"CLASSIFICATION_TYPE":"U","NORAD_CAT_ID":63571,"ELEMENT_SET_NO":999,"REV_AT_EPOCH":4717,"BSTAR":0.0011442,"MEAN_MOTION_DOT":0.00031371,"MEAN_MOTION_DDOT":0},{"OBJECT_NAME":"STARLINK-33739","OBJECT_ID":"2025-076D","EPOCH":"2026-02-08T05:55:37.310304","MEAN_MOTION":15.27605718,"ECCENTRICITY":8.794e-5,"INCLINATION":42.9952,"RA_OF_ASC_NODE":128.3086,"ARG_OF_PERICENTER":189.5782,"MEAN_ANOMALY":170.5053,"EPHEMERIS_TYPE":0,"CLASSIFICATION_TYPE":"U","NORAD_CAT_ID":63572,"ELEMENT_SET_NO":999,"REV_AT_EPOCH":4732,"BSTAR":0.00091498259,"MEAN_MOTION_DOT":0.00025022,"MEAN_MOTION_DDOT":0},{"OBJECT_NAME":"STARLINK-33683","OBJECT_ID":"2025-076E","EPOCH":"2026-02-08T05:53:46.561920","MEAN_MOTION":15.27606505,"ECCENTRICITY":0.00026344,"INCLINATION":42.9989,"RA_OF_ASC_NODE":128.2986,"ARG_OF_PERICENTER":301.5944,"MEAN_ANOMALY":58.4651,"EPHEMERIS_TYPE":0,"CLASSIFICATION_TYPE":"U","NORAD_CAT_ID":63573,"ELEMENT_SET_NO":999,"REV_AT_EPOCH":4732,"BSTAR":0.0013211554,"MEAN_MOTION_DOT":0.00036304,"MEAN_MOTION_DDOT":0},{"OBJECT_NAME":"STARLINK-33732","OBJECT_ID":"2025-076G","EPOCH":"2026-02-08T07:09:25.167744","MEAN_MOTION":15.27610992,"ECCENTRICITY":0.00030527,"INCLINATION":43.0006,"RA_OF_ASC_NODE":127.8365,"ARG_OF_PERICENTER":166.4589,"MEAN_ANOMALY":193.6345,"EPHEMERIS_TYPE":0,"CLASSIFICATION_TYPE":"U","NORAD_CAT_ID":63575,"ELEMENT_SET_NO":999,"REV_AT_EPOCH":4733,"BSTAR":0.00099217827,"MEAN_MOTION_DOT":0.00027169,"MEAN_MOTION_DDOT":0},{"OBJECT_NAME":"STARLINK-33800","OBJECT_ID":"2025-076H","EPOCH":"2026-02-08T06:32:24.953856","MEAN_MOTION":15.27598598,"ECCENTRICITY":0.00030179,"INCLINATION":42.9948,"RA_OF_ASC_NODE":127.6351,"ARG_OF_PERICENTER":300.1989,"MEAN_ANOMALY":59.8564,"EPHEMERIS_TYPE":0,"CLASSIFICATION_TYPE":"U","NORAD_CAT_ID":63576,"ELEMENT_SET_NO":999,"REV_AT_EPOCH":4733,"BSTAR":0.0009524378,"MEAN_MOTION_DOT":0.00026056,"MEAN_MOTION_DDOT":0},{"OBJECT_NAME":"STARLINK-33632","OBJECT_ID":"2025-076J","EPOCH":"2026-02-08T05:50:04.260768","MEAN_MOTION":15.27607191,"ECCENTRICITY":0.00012142,"INCLINATION":42.9999,"RA_OF_ASC_NODE":128.2784,"ARG_OF_PERICENTER":245.0849,"MEAN_ANOMALY":114.9877,"EPHEMERIS_TYPE":0,"CLASSIFICATION_TYPE":"U","NORAD_CAT_ID":63577,"ELEMENT_SET_NO":999,"REV_AT_EPOCH":4732,"BSTAR":0.0014544775,"MEAN_MOTION_DOT":0.00040013,"MEAN_MOTION_DDOT":0},{"OBJECT_NAME":"STARLINK-33719","OBJECT_ID":"2025-076K","EPOCH":"2026-02-08T06:45:21.716640","MEAN_MOTION":15.27626149,"ECCENTRICITY":0.00035141,"INCLINATION":42.9998,"RA_OF_ASC_NODE":127.7096,"ARG_OF_PERICENTER":279.6729,"MEAN_ANOMALY":80.3725,"EPHEMERIS_TYPE":0,"CLASSIFICATION_TYPE":"U","NORAD_CAT_ID":63578,"ELEMENT_SET_NO":999,"REV_AT_EPOCH":4733,"BSTAR":0.0012707319,"MEAN_MOTION_DOT":0.00034925,"MEAN_MOTION_DDOT":0},{"OBJECT_NAME":"STARLINK-33755","OBJECT_ID":"2025-076L","EPOCH":"2026-02-08T06:47:12.025248","MEAN_MOTION":15.27599283,"ECCENTRICITY":0.00055384,"INCLINATION":43.0007,"RA_OF_ASC_NODE":127.6401,"ARG_OF_PERICENTER":299.9434,"MEAN_ANOMALY":60.0868,"EPHEMERIS_TYPE":0,"CLASSIFICATION_TYPE":"U","NORAD_CAT_ID":63579,"ELEMENT_SET_NO":999,"REV_AT_EPOCH":4733,"BSTAR":0.0011156104,"MEAN_MOTION_DOT":0.00030593,"MEAN_MOTION_DDOT":0},{"OBJECT_NAME":"STARLINK-33752","OBJECT_ID":"2025-076M","EPOCH":"2026-02-08T05:31:33.710592","MEAN_MOTION":15.27616486,"ECCENTRICITY":0.00020976,"INCLINATION":43.0022,"RA_OF_ASC_NODE":128.186,"ARG_OF_PERICENTER":295.0481,"MEAN_ANOMALY":65.0152,"EPHEMERIS_TYPE":0,"CLASSIFICATION_TYPE":"U","NORAD_CAT_ID":63580,"ELEMENT_SET_NO":999,"REV_AT_EPOCH":4732,"BSTAR":0.0013915407,"MEAN_MOTION_DOT":0.00038273,"MEAN_MOTION_DDOT":0}]
